NORAD_CAT_ID,OBJECT_NAME,OBJECT_TYPE,EPOCH,MEAN_MOTION,ECCENTRICITY,INCLINATION,RA_OF_ASC_NODE,ARG_OF_PERICENTER,MEAN_ANOMALY,BSTAR,MEAN_MOTION_DOT,MEAN_MOTION_DDOT,TLE_LINE0,TLE_LINE1,TLE_LINE2,SEMIMAJOR_AXIS,PERIOD,APOGEE,PERIGEE,DECAYED
56808.0,STARLINK-6042,PAYLOAD,2023-06-14 04:00:00,15.76613064,0.0003279,70.0022,14.2782,273.5558,267.5566,-0.0066412,-0.0095158,0.0,0 STARLINK-6042,1 56808U 23078AT  23165.16667824 -.00951580  00000-0 -66412-2 0  9995,2 56808  70.0022  14.2782 0003279 273.5558 267.5566 15.76613064  2480,6718.182,91.335,342.25,337.844,0.0
56808.0,STARLINK-6042,PAYLOAD,2023-06-14 12:00:00,15.75935497,0.0003452,70.0023,13.3321,265.1054,6.9383,-0.006396,-0.00895465,0.0,0 STARLINK-6042,1 56808U 23078AT  23165.50001157 -.00895465  00000-0 -63960-2 0  9998,2 56808  70.0023  13.3321 0003452 265.1054   6.9383 15.75935497  2546,6720.107,91.374,344.292,339.653,0.0
56808.0,STARLINK-6042,PAYLOAD,2023-06-14 14:00:01,15.75797732,0.0003512,70.0026,13.0958,267.9392,116.7071,-0.0067654,-0.00936809,0.0,0 STARLINK-6042,1 56808U 23078AT  23165.58334491 -.00936809  00000-0 -67654-2 0  9998,2 56808  70.0026  13.0958 0003512 267.9392 116.7071 15.75797732  1309,6720.499,91.382,344.724,340.004,0.0
56808.0,STARLINK-6042,PAYLOAD,2023-06-14 22:00:00,15.75098371,0.0003368,70.0026,12.1509,274.5881,200.0263,-0.0064199,-0.00869049,0.0,0 STARLINK-6042,1 56808U 23078AT  23165.91667824 -.00869049  00000-0 -64199-2 0  9996,2 56808  70.0026  12.1509 0003368 274.5881 200.0263 15.75098371  1300,6722.488,91.423,346.617,342.089,0.0
56808.0,STARLINK-6042,PAYLOAD,2023-06-15 04:00:00,15.74655375,0.0003355,70.0022,11.4428,274.4103,177.1392,-0.0072314,-0.00950715,0.0,0 STARLINK-6042,1 56808U 23078AT  23166.16667824 -.00950715  00000-0 -72314-2 0  9993,2 56808  70.0022  11.4428 0003355 274.4103 177.1392 15.74655375  2647,6723.749,91.449,347.87,343.358,0.0
56808.0,STARLINK-6042,PAYLOAD,2023-06-15 12:00:02,15.73979013,0.0003357,70.0023,10.4999,266.0915,274.1051,-0.006935,-0.00891687,0.0,0 STARLINK-6042,1 56808U 23078AT  23166.50002315 -.00891687  00000-0 -69350-2 0  9997,2 56808  70.0023  10.4999 0003357 266.0915 274.1051 15.73979013  2692,6725.675,91.488,349.798,345.282,0.0
56808.0,STARLINK-6042,PAYLOAD,2023-06-15 14:00:01,15.73846755,0.0003535,70.0026,10.2642,265.5556,26.5903,-0.007414,-0.00942141,0.0,0 STARLINK-6042,1 56808U 23078AT  23166.58334491 -.00942141  00000-0 -74140-2 0  9993,2 56808  70.0026  10.2642 0003535 265.5556  26.5903 15.73846755  1309,6726.052,91.496,350.295,345.539,0.0
56808.0,STARLINK-6042,PAYLOAD,2023-06-15 20:00:01,15.73305482,0.0003593,70.0021,9.5576,270.5759,357.3714,-0.0070559,-0.00882331,0.0,0 STARLINK-6042,1 56808U 23078AT  23166.83334491 -.00882331  00000-0 -70559-2 0  9995,2 56808  70.0021   9.5576 0003593 270.5759 357.3714 15.73305482  1308,6727.594,91.527,351.877,347.042,0.0
56808.0,STARLINK-6042,PAYLOAD,2023-06-16 04:00:00,15.72695757,0.0003781,70.0015,8.616,272.8011,82.1445,-0.0078265,-0.00946131,0.0,0 STARLINK-6042,1 56808U 23078AT  23167.16667824 -.00946131  00000-0 -78265-2 0  9992,2 56808  70.0015   8.6160 0003781 272.8011  82.1445 15.72695757  2801,6729.333,91.563,353.743,348.654,0.0
56808.0,STARLINK-6042,PAYLOAD,2023-06-16 12:00:00,15.72025054,0.0003775,70.0015,7.6753,268.7805,172.399,-0.0076233,-0.00900543,0.0,0 STARLINK-6042,1 56808U 23078AT  23167.50001157 -.00900543  00000-0 -76233-2 0  9991,2 56808  70.0015   7.6753 0003775 268.7805 172.3990 15.72025054  2855,6731.247,91.602,355.653,350.571,0.0
56808.0,STARLINK-6042,PAYLOAD,2023-06-16 14:00:01,15.71881521,0.0003682,70.0018,7.4404,266.6417,285.9694,-0.0079778,-0.00932936,0.0,0 STARLINK-6042,1 56808U 23078AT  23167.58334491 -.00932936  00000-0 -79778-2 0  9997,2 56808  70.0018   7.4404 0003682 266.6417 285.9694 15.71881521  1301,6731.657,91.61,356.0,351.043,0.0
56808.0,STARLINK-6042,PAYLOAD,2023-06-16 22:00:00,15.71175085,0.0003721,70.0018,6.5008,272.6868,5.1998,-0.007428,-0.00851455,0.0,0 STARLINK-6042,1 56808U 23078AT  23167.91667824 -.00851455  00000-0 -74280-2 0  9992,2 56808  70.0018   6.5008 0003721 272.6868   5.1998 15.71175085  1302,6733.674,91.651,358.045,353.034,0.0
56808.0,STARLINK-6042,PAYLOAD,2023-06-17 04:00:00,15.7072548,0.000353,70.0013,5.7968,272.403,338.8996,-0.0081634,-0.00911416,0.0,0 STARLINK-6042,1 56808U 23078AT  23168.16667824 -.00911416  00000-0 -81634-2 0  9995,2 56808  70.0013   5.7968 0003530 272.4030 338.8996 15.70725480  2966,6734.959,91.677,359.202,354.447,0.0
56808.0,STARLINK-6042,PAYLOAD,2023-06-17 09:02:53,15.70656928,0.0003535,70.0016,5.2052,276.794,83.2853,-0.0038805,-0.00456115,0.0,0 STARLINK-6042,1 56808U 23078AT  23168.37700368 -.00456115  00000-0 -38805-2 0  9991,2 56808  70.0016   5.2052 0003535 276.7940  83.2853 15.70656928  2996,6735.155,91.681,359.401,354.639,0.0
56808.0,STARLINK-6042,PAYLOAD,2023-06-17 12:06:21,15.70444711,0.0003835,70.0016,4.8468,272.3825,87.6932,-0.0036185,-0.00423251,0.0,0 STARLINK-6042,1 56808U 23078AT  23168.50441214 -.00423251  00000-0 -36185-2 0  9992,2 56808  70.0016   4.8468 0003835 272.3825  87.6932 15.70444711  2754,6735.762,91.694,360.21,355.044,0.0
56808.0,STARLINK-6042,PAYLOAD,2023-06-17 16:41:35,15.70177539,0.0003474,70.0016,4.3093,269.865,90.2147,-0.0028793,-0.00336465,0.0,0 STARLINK-6042,1 56808U 23078AT  23168.69555443 -.00336465  00000-0 -28793-2 0  9998,2 56808  70.0016   4.3093 0003474 269.8650  90.2147 15.70177539  3041,6736.526,91.709,360.731,356.051,0.0
56808.0,STARLINK-6042,PAYLOAD,2023-06-17 19:45:05,15.7009551,0.0003573,70.0014,3.9512,273.3081,86.7706,-0.0020122,-0.00237159,0.0,0 STARLINK-6042,1 56808U 23078AT  23168.82298321 -.00237159  00000-0 -20122-2 0  9990,2 56808  70.0014   3.9512 0003573 273.3081  86.7706 15.70095510  2800,6736.761,91.714,361.033,356.219,0.0
56808.0,STARLINK-6042,PAYLOAD,2023-06-18 04:00:00,15.69948875,0.0003621,70.0004,2.9847,272.8423,229.0358,-0.00054533,-0.00065347,0.0,0 STARLINK-6042,1 56808U 23078AT  23169.16667824 -.00065347  00000-0 -54533-3 0  9998,2 56808  70.0004   2.9847 0003621 272.8423 229.0358 15.69948875  3116,6737.18,91.723,361.485,356.606,0.0
56808.0,STARLINK-6042,PAYLOAD,2023-06-18 12:00:00,15.69932359,0.000365,70.0006,2.0475,267.0219,318.1818,1.3718e-05,1.437e-05,0.0,0 STARLINK-6042,1 56808U 23078AT  23169.50001157  .00001437  00000-0  13718-4 0  9996,2 56808  70.0006   2.0475 0003650 267.0219 318.1818 15.69932359  3163,6737.228,91.724,361.552,356.633,0.0
56808.0,STARLINK-6042,PAYLOAD,2023-06-18 12:34:23,15.69928035,0.0003673,70.0012,1.981,271.5801,88.4974,9.3544e-05,0.00011052,0.0,0 STARLINK-6042,1 56808U 23078AT  23169.52388171  .00011052  00000-0  93544-4 0  9991,2 56808  70.0012   1.9810 0003673 271.5801  88.4974 15.69928035  2911,6737.24,91.724,361.579,356.63,0.0
56808.0,STARLINK-6042,PAYLOAD,2023-06-18 22:00:00,15.69883166,0.0003565,70.0007,0.8757,275.9377,143.4584,0.00072128,0.00087277,0.0,0 STARLINK-6042,1 56808U 23078AT  23169.91667824  .00087277  00000-0  72128-3 0  9995,2 56808  70.0007   0.8757 0003565 275.9377 143.4584 15.69883166  1305,6737.368,91.727,361.635,356.831,0.0
56808.0,STARLINK-6042,PAYLOAD,2023-06-19 04:00:00,15.69970929,0.0003531,70.0004,0.1728,273.7586,118.1179,-0.00085716,-0.00102237,0.0,0 STARLINK-6042,1 56808U 23078AT  23170.16667824 -.00102237  00000-0 -85716-3 0  9997,2 56808  70.0004   0.1728 0003531 273.7586 118.1179 15.69970929  3275,6737.117,91.721,361.361,356.603,0.0
56808.0,STARLINK-6042,PAYLOAD,2023-06-19 08:27:09,15.69949493,0.0003583,70.0008,359.6512,275.4095,84.6692,0.00052517,0.00063483,0.0,0 STARLINK-6042,1 56808U 23078AT  23170.35219732  .00063483  00000-0  52517-3 0  9999,2 56808  70.0008 359.6512 0003583 275.4095  84.6692 15.69949493  3306,6737.179,91.723,361.457,356.63,0.0
56808.0,STARLINK-6042,PAYLOAD,2023-06-19 13:02:25,15.69929351,0.0003611,70.0008,359.1136,273.3859,86.6923,0.0003185,0.00038269,0.0,0 STARLINK-6042,1 56808U 23078AT  23170.54334999  .00038269  00000-0  31850-3 0  9994,2 56808  70.0008 359.1136 0003611 273.3859  86.6923 15.69929351  3074,6737.236,91.724,361.534,356.668,0.0
56808.0,STARLINK-6042,PAYLOAD,2023-06-19 20:00:01,15.69887323,0.0003675,70.0008,358.2986,275.9304,282.644,0.00045108,0.00054298,0.0,0 STARLINK-6042,1 56808U 23078AT  23170.83334491  .00054298  00000-0  45108-3 0  9994,2 56808  70.0008 358.2986 0003675 275.9304 282.6440 15.69887323  3377,6737.356,91.726,361.697,356.745,0.0
56808.0,STARLINK-6042,PAYLOAD,2023-06-19 22:00:00,15.69888815,0.0003679,70.0008,358.0642,276.853,32.5493,0.00056742,0.00068477,0.0,0 STARLINK-6042,1 56808U 23078AT  23170.91667824  .00068477  00000-0  56742-3 0  9992,2 56808  70.0008 358.0642 0003679 276.8530  32.5493 15.69888815  1307,6737.352,91.726,361.696,356.738,0.0
56808.0,STARLINK-6042,PAYLOAD,2023-06-20 12:00:00,15.6994055,0.0003629,70.0007,356.4241,268.3111,96.9163,-0.0001449,-0.00017612,0.0,0 STARLINK-6042,1 56808U 23078AT  23171.50001157 -.00017612  00000-0 -14490-3 0  9990,2 56808  70.0007 356.4241 0003629 268.3111  96.9163 15.69940550  3483,6737.204,91.723,361.514,356.624,0.0
56808.0,STARLINK-6042,PAYLOAD,2023-06-20 14:00:01,15.69965779,0.0003626,70.0007,356.1895,269.1795,206.8787,-0.00065344,-0.00078196,0.0,0 STARLINK-6042,1 56808U 23078AT  23171.58334491 -.00078196  00000-0 -65344-3 0  9996,2 56808  70.0007 356.1895 0003626 269.1795 206.8787 15.69965779  1302,6737.132,91.722,361.44,356.554,0.0
56808.0,STARLINK-6042,PAYLOAD,2023-06-20 22:00:00,15.6988948,0.0003534,70.0007,355.2523,274.8765,284.5402,0.00051962,0.00062647,0.0,0 STARLINK-6042,1 56808U 23078AT  23171.91667824  .00062647  00000-0  51962-3 0  9995,2 56808  70.0007 355.2523 0003534 274.8765 284.5402 15.69889480  1309,6737.35,91.726,361.596,356.834,0.0
56808.0,STARLINK-6042,PAYLOAD,2023-06-21 01:44:27,15.69945789,0.0003582,70.0009,354.8138,273.7,86.3786,0.00039962,0.0004816,0.0,0 STARLINK-6042,1 56808U 23078AT  23172.07254505  .00048160  00000-0  39962-3 0  9991,2 56808  70.0009 354.8138 0003582 273.7000  86.3786 15.69945789  3570,6737.189,91.723,361.467,356.641,0.0
